{"type": "FeatureCollection", "features": [{"type": "Feature", "properties": {"name": "Sureli GP"}, "geometry": {"type": "Polygon", "coordinates": [[[81.2822162468767, 20.26731301877214], [81.28186587119468, 20.26725536834588], [81.2819150423568, 20.26672356919118], [81.28160391764699, 20.26636972913993], [81.2817237901589, 20.26624932818906], [81.28191171696862, 20.26571119602533], [81.28191232035036, 20.26501362339971], [81.28201791310552, 20.26489539230445], [81.28148962182807, 20.26403759891609], [81.28101096433272, 20.26283924132204], [81.28090210414527, 20.26170859103905], [81.2815132197477, 20.25930496640092], [81.28200024510693, 20.25847080590171], [81.28264540206114, 20.25797689831081], [81.28400673715785, 20.25718740189812], [81.2862144901085, 20.25585265891448], [81.28948613666903, 20.25400532667632], [81.28993696073515, 20.2548967249233], [81.29000349732051, 20.25495948986458], [81.29120801231012, 20.25451230696969], [81.29192767694086, 20.25429965070296], [81.29719123079222, 20.2529545784643], [81.29989088167758, 20.25185997851031], [81.30112895418424, 20.25083007311332], [81.30238699724373, 20.2493645782634], [81.303230208439, 20.24776553443175], [81.30311553044211, 20.24610108647984], [81.30505010308086, 20.24500797868884], [81.30742107994867, 20.24410453806881], [81.30821445599075, 20.24410481890902], [81.30885791331744, 20.2415078037317], [81.30879657646341, 20.24112919238338], [81.30921013294154, 20.24052463213392], [81.31049117547774, 20.23800855971733], [81.31123064865591, 20.23697998272974], [81.31238832422466, 20.2363333062795], [81.31291310328132, 20.23643530865649], [81.31390335299223, 20.23612449582585], [81.31705358186511, 20.23340781283553], [81.31918471337994, 20.2324209896913], [81.32185375875088, 20.23092767177369], [81.3231660551191, 20.22906865660434], [81.32354443571424, 20.22811135499179], [81.32397110874754, 20.22621872596994], [81.32450490033652, 20.22504292859561], [81.3249404700007, 20.22469588234813], [81.32528912157628, 20.22483776007299], [81.32602869112121, 20.22556845973656], [81.32619377523606, 20.22652193725285], [81.32522213395961, 20.2280676512799], [81.32446688432637, 20.23095971181355], [81.3254543316992, 20.23212520153253], [81.32448808523459, 20.23304969172499], [81.3222533672278, 20.23411442083093], [81.3219705766711, 20.23667195226547], [81.32349944387475, 20.23620291323044], [81.32441200257828, 20.23797776068945], [81.32461898534156, 20.23818815515019], [81.32612423882388, 20.23825512222421], [81.32722512998129, 20.23790149786724], [81.32765916335097, 20.23790723379294], [81.32858471924538, 20.23721590707416], [81.33100643162875, 20.23666641571514], [81.33094937862441, 20.23764114523746], [81.33100063595653, 20.23889996732689], [81.32907503386726, 20.23806862451433], [81.32669657084769, 20.23902951700616], [81.32618223783565, 20.24063463744631], [81.3272787648494, 20.2403918994608], [81.32822125811765, 20.24002685267482], [81.32831638294678, 20.24032763079497], [81.32906162135444, 20.24071742928462], [81.32763527908398, 20.24233327172573], [81.32606837734009, 20.24270106969659], [81.32131435789867, 20.24516737204569], [81.31850899228738, 20.24771847391533], [81.31668446337385, 20.24781803304698], [81.31352663925183, 20.2506082707518], [81.30991220922981, 20.25034833536491], [81.30810583651119, 20.25162067219198], [81.3077881233563, 20.252380421952], [81.30635579067706, 20.25295684309251], [81.30529576727086, 20.25381786428521], [81.30658396407486, 20.25467951638497], [81.30704194299717, 20.25464244752808], [81.30705609037462, 20.25488044898706], [81.30733466333474, 20.2550109363888], [81.30608268388985, 20.25607036675234], [81.30506885247335, 20.25661811237128], [81.30422189710701, 20.25672094204079], [81.30240329086375, 20.25759183718102], [81.30102560845198, 20.25647901033267], [81.2996902283149, 20.25843690227926], [81.29969751271757, 20.25854914769001], [81.30049503644246, 20.25891090920905], [81.29997840612833, 20.25939352614964], [81.29884353279876, 20.26061321803091], [81.29871369501537, 20.26084474047633], [81.29865233961854, 20.26123426438859], [81.29878444993935, 20.26142033848589], [81.29904650133857, 20.26149655811608], [81.30049087979171, 20.26088954745849], [81.30136220946162, 20.25991171115259], [81.30311152530787, 20.25988898861162], [81.30356843632802, 20.25980233113658], [81.30450259309387, 20.25926608405193], [81.3058489234691, 20.25869045885632], [81.30614077053798, 20.25861914786466], [81.30616298278423, 20.25812855371158], [81.30657146144543, 20.25773172391578], [81.30699075165515, 20.25773525134588], [81.30771421991363, 20.25740961430184], [81.307747307337, 20.25725045788039], [81.30847893017061, 20.25680566252819], [81.30876476329368, 20.25679593319697], [81.30889585345284, 20.25689423609591], [81.30932327516226, 20.25686050382668], [81.30946758726053, 20.25660991756184], [81.30956020789807, 20.25623317137627], [81.30945940575232, 20.25613664194106], [81.31074177372399, 20.25517787394739], [81.3113436708857, 20.25406181375545], [81.31290444338148, 20.25336515210165], [81.31379889999192, 20.25287239479789], [81.31390470708408, 20.25216616142261], [81.313898262478, 20.25171443059002], [81.31427581198804, 20.25162903525667], [81.31456393223857, 20.25222048709333], [81.31529287490086, 20.25218172761667], [81.31600348381123, 20.25198006638939], [81.31614649530881, 20.25223552397208], [81.31636150346654, 20.25233455159083], [81.31651023144828, 20.25259083924253], [81.3164600691262, 20.25266500526311], [81.31675987565555, 20.25314185451233], [81.31783588996981, 20.25327701258889], [81.31845286002704, 20.25222564392687], [81.31903885771611, 20.25218883952935], [81.31961616182198, 20.25380603988465], [81.31965806557052, 20.25388983795688], [81.32215734315226, 20.25429254694793], [81.32274806053512, 20.25421573612986], [81.3239134726008, 20.25351312649871], [81.3239890223925, 20.25445386650163], [81.32395456271406, 20.25464851678201], [81.32294199071373, 20.25660852861152], [81.32172847010028, 20.25748608175766], [81.32045495026149, 20.25727322676789], [81.31931539526865, 20.25948840584964], [81.3194833463754, 20.25990190234209], [81.31984105157645, 20.26035785787942], [81.31996164792741, 20.2617837853299], [81.32075699466083, 20.26211111370201], [81.32168425500437, 20.2619900089218], [81.3227075969865, 20.2614868127661], [81.3238491133811, 20.26063012064297], [81.32493444341988, 20.26011427874603], [81.32617170443683, 20.26023512587134], [81.32619097384628, 20.26173141898442], [81.32633783781485, 20.26182342292205], [81.32623693354527, 20.26206085020945], [81.32611361690454, 20.26245431512791], [81.32607274559948, 20.26274666798585], [81.32614510736803, 20.26284044051076], [81.32592780458215, 20.26545073263183], [81.32577934364134, 20.26648455167035], [81.32593091869077, 20.26731809127803], [81.32511799006207, 20.26748099375407], [81.32470839665427, 20.26738097524248], [81.32409676258152, 20.26748868160718], [81.32376819949447, 20.26754058934472], [81.32354155271022, 20.26765652525253], [81.32228423403186, 20.26785460070778], [81.3197152725964, 20.26783715814375], [81.3185576586497, 20.26801201782497], [81.31643201419716, 20.26884206928654], [81.3151164679749, 20.26905760759334], [81.31331703134614, 20.26956895016053], [81.31277483449058, 20.2696690598726], [81.31263743026842, 20.26997553063013], [81.3123494224259, 20.26999908786623], [81.31187933705996, 20.26996494861673], [81.31182449138208, 20.26959333006572], [81.3113170728974, 20.26960795798849], [81.31097585583063, 20.26955832760959], [81.31082952091656, 20.26953454067626], [81.31070312484717, 20.26947825081063], [81.31040195132455, 20.26949500380007], [81.31001094067709, 20.26955246648808], [81.30971531140084, 20.26951206568852], [81.30946948572152, 20.26938013509544], [81.30903511092774, 20.26954791734213], [81.30893592903269, 20.26940789175625], [81.30670195347209, 20.26935346672315], [81.30573462151966, 20.26933732648978], [81.30531181939232, 20.26928783364404], [81.30444529212274, 20.26938663939529], [81.30383189134469, 20.26922762203762], [81.30273454888659, 20.26928650942898], [81.30247132982534, 20.26937986496801], [81.3018416320373, 20.26928547340868], [81.29977230779802, 20.26940174150329], [81.29956988350693, 20.26894197923752], [81.29913389663068, 20.26913563126481], [81.29798891900413, 20.26994786986627], [81.29768187871497, 20.26987376016652], [81.29554685909142, 20.26951248508118], [81.29544459470068, 20.26944184800028], [81.29456630138732, 20.2692023067067], [81.29388130517367, 20.26911787059788], [81.29337458682747, 20.26920107260806], [81.29297986859173, 20.26920688355173], [81.29247673674666, 20.26925817235291], [81.29241300196509, 20.26905428151413], [81.29219412448913, 20.26906692529737], [81.29185836724366, 20.26914098449011], [81.29158027722723, 20.2693282270103], [81.28949777027223, 20.26955965250552], [81.28917828069885, 20.26945430760523], [81.28811054743909, 20.26951237012939], [81.2878355756939, 20.26958233802775], [81.28601407172731, 20.26969147111638], [81.28411626983599, 20.26874787451514], [81.28393301433331, 20.26858144656427], [81.2837982772623, 20.26863785987562], [81.28236753527874, 20.26810675179646], [81.2822162468767, 20.26731301877214]]]}}]}